{
    "satellites": [
        {
            "name": "starlink335",
            "title": "Starlink-335 (G6-90)",
            "tle": [
                "1 72001C 25294B   25345.83613194  .01292300  00000+0  20581-2 0    03",
                "2 72001  42.9951 142.5697 0009160 286.4914  91.3883 16.02192715    13"
            ],
            "stdMag": 5,
            "noradId": "72001",
            "tleUrl": "http://celestrak.org/NORAD/elements/supplemental/sup-gp.php?FILE=starlink-g6-90&FORMAT=tle",
            "launchDate": "2025-12-11T22:01:20.000Z",
            "active": true
        },
        {
            "name": "starlink334",
            "title": "Starlink-334 (G15-11) (new)",
            "tle": [
                "1 71187C 25293AC  25345.10951389  .00566050  00000+0  80970-3 0  3453",
                "2 71187  69.9972 328.8729 0009365 260.3101 221.6009 16.04587822    17"
            ],
            "stdMag": 5,
            "noradId": "71187",
            "tleUrl": "http://celestrak.org/NORAD/elements/supplemental/sup-gp.php?FILE=starlink&FORMAT=tle",
            "launchDate": "2025-12-10T11:40:30.000Z",
            "active": true,
            "batch": [
                {
                    "noradId": "71187",
                    "tle": [
                        "1 71187C 25293AC  25345.10951389  .00566050  00000+0  80970-3 0  3453",
                        "2 71187  69.9972 328.8729 0009365 260.3101 221.6009 16.04587822    17"
                    ]
                },
                {
                    "noradId": "71186",
                    "tle": [
                        "1 71186C 25293AB  25345.10673611  .00566580  00000+0  81070-3 0  3451",
                        "2 71186  69.9970 328.8809 0009373 260.1287 205.7308 16.04582176    17"
                    ]
                },
                {
                    "noradId": "71184",
                    "tle": [
                        "1 71184C 25293Z   25345.11159722  .00563430  00000+0  80619-3 0  3451",
                        "2 71184  69.9972 328.8667 0009369 260.4212 233.5054 16.04585449    18"
                    ]
                },
                {
                    "noradId": "71185",
                    "tle": [
                        "1 71185C 25293AA  25345.10881944  .00560230  00000+0  80208-3 0  3458",
                        "2 71185  69.9971 328.8749 0009377 260.3386 217.5462 16.04579035    18"
                    ]
                },
                {
                    "noradId": "71183",
                    "tle": [
                        "1 71183C 25293Y   25345.11020833  .00570370  00000+0  81649-3 0  3455",
                        "2 71183  69.9971 328.8708 0009364 260.6557 225.2225 16.04571289    16"
                    ]
                },
                {
                    "noradId": "71182",
                    "tle": [
                        "1 71182C 25293X   25345.10881944  .00569740  00000+0  81610-3 0  3458",
                        "2 71182  69.9971 328.8749 0009340 260.8834 216.9564 16.04562089    15"
                    ]
                },
                {
                    "noradId": "71181",
                    "tle": [
                        "1 71181C 25293W   25345.10881944  .00563290  00000+0  80778-3 0  3455",
                        "2 71181  69.9970 328.8749 0009345 261.0885 216.7338 16.04549817    18"
                    ]
                },
                {
                    "noradId": "71180",
                    "tle": [
                        "1 71180C 25293V   25345.11159722  .00573320  00000+0  82142-3 0  3459",
                        "2 71180  69.9971 328.8667 0009333 261.2207 232.6366 16.04554806    16"
                    ]
                },
                {
                    "noradId": "71179",
                    "tle": [
                        "1 71179C 25293U   25345.11159722  .00576990  00000+0  82726-3 0  3451",
                        "2 71179  69.9971 328.8668 0009311 261.5316 232.2977 16.04539849    19"
                    ]
                },
                {
                    "noradId": "71178",
                    "tle": [
                        "1 71178C 25293T   25345.11229167  .00563020  00000+0  80837-3 0  3452",
                        "2 71178  69.9972 328.8647 0009320 261.6876 236.1374 16.04530831    14"
                    ]
                },
                {
                    "noradId": "71177",
                    "tle": [
                        "1 71177C 25293S   25345.11229167  .00556980  00000+0  80050-3 0  3455",
                        "2 71177  69.9972 328.8648 0009315 261.9531 235.8542 16.04520540    18"
                    ]
                },
                {
                    "noradId": "71176",
                    "tle": [
                        "1 71176C 25293R   25345.11229167  .00563740  00000+0  81007-3 0  3459",
                        "2 71176  69.9973 328.8648 0009311 262.0513 235.7442 16.04516938    10"
                    ]
                },
                {
                    "noradId": "71175",
                    "tle": [
                        "1 71175C 25293Q   25345.11159722  .00560750  00000+0  80673-3 0  3453",
                        "2 71175  69.9974 328.8669 0009287 262.3441 231.4132 16.04500856    19"
                    ]
                },
                {
                    "noradId": "71173",
                    "tle": [
                        "1 71173C 25293N   25345.10881944  .00574240  00000+0  82599-3 0  3456",
                        "2 71173  69.9974 328.8752 0009285 262.5120 215.1833 16.04490237    12"
                    ]
                },
                {
                    "noradId": "71174",
                    "tle": [
                        "1 71174C 25293P   25345.10951389  .00560230  00000+0  80685-3 0  3456",
                        "2 71174  69.9974 328.8731 0009260 262.5773 219.1195 16.04484163    13"
                    ]
                },
                {
                    "noradId": "71172",
                    "tle": [
                        "1 71172C 25293M   25345.11229167  .00567380  00000+0  81695-3 0  3452",
                        "2 71172  69.9975 328.8649 0009279 262.8748 234.8464 16.04480603    13"
                    ]
                },
                {
                    "noradId": "71171",
                    "tle": [
                        "1 71171C 25293L   25345.10743056  .00571200  00000+0  82292-3 0  3458",
                        "2 71171  69.9975 328.8794 0009249 263.0016 206.6316 16.04468037    11"
                    ]
                },
                {
                    "noradId": "71170",
                    "tle": [
                        "1 71170C 25293K   25345.11229167  .00565720  00000+0  81541-3 0  3456",
                        "2 71170  69.9975 328.8650 0009252 263.3399 234.3469 16.04465616    19"
                    ]
                },
                {
                    "noradId": "71169",
                    "tle": [
                        "1 71169C 25293J   25345.10812500  .00559850  00000+0  80824-3 0  3452",
                        "2 71169  69.9976 328.8774 0009241 263.5031 210.0979 16.04445663    15"
                    ]
                },
                {
                    "noradId": "71168",
                    "tle": [
                        "1 71168C 25293H   25345.10881944  .00563510  00000+0  81341-3 0  3452",
                        "2 71168  69.9976 328.8753 0009218 263.7224 213.8773 16.04444687    19"
                    ]
                },
                {
                    "noradId": "71167",
                    "tle": [
                        "1 71167C 25293G   25345.10743056  .00568900  00000+0  82132-3 0  3459",
                        "2 71167  69.9976 328.8795 0009216 263.8107 205.7545 16.04436602    18"
                    ]
                },
                {
                    "noradId": "71166",
                    "tle": [
                        "1 71166C 25293F   25345.11229167  .00569650  00000+0  82229-3 0  3451",
                        "2 71166  69.9976 328.8651 0009232 264.0687 233.5549 16.04437744    13"
                    ]
                },
                {
                    "noradId": "71165",
                    "tle": [
                        "1 71165C 25293E   25345.10743056  .00564780  00000+0  81651-3 0  3454",
                        "2 71165  69.9977 328.8795 0009206 264.2528 205.2762 16.04417976    17"
                    ]
                },
                {
                    "noradId": "71164",
                    "tle": [
                        "1 71164C 25293D   25345.11229167  .00555200  00000+0  80332-3 0  3458",
                        "2 71164  69.9977 328.8651 0009210 264.5720 233.0085 16.04414152    19"
                    ]
                },
                {
                    "noradId": "71163",
                    "tle": [
                        "1 71163C 25293C   25345.10673611  .00571460  00000+0  82652-3 0  3456",
                        "2 71163  69.9977 328.8816 0009196 264.5556 200.9338 16.04404496    15"
                    ]
                },
                {
                    "noradId": "71162",
                    "tle": [
                        "1 71162C 25293B   25345.11229167  .00561970  00000+0  81408-3 0  3452",
                        "2 71162  69.9977 328.8652 0009203 265.0041 232.5268 16.04387992    10"
                    ]
                },
                {
                    "noradId": "71161",
                    "tle": [
                        "1 71161C 25293A   25345.10951389  .00546570  00000+0  79315-3 0  3451",
                        "2 71161  69.9978 328.8735 0009216 264.8789 216.5979 16.04374650    10"
                    ]
                }
            ]
        }
    ],
    "config": {}
}